ONEWEB-0427             
1 50499U 21132AG  25198.50885112  .00000025  00000+0  29996-4 0  9996
2 50499  87.9121  41.9244 0001586  86.4830 273.6483 13.18685319177508
ONEWEB-0429             
1 50500U 21132AH  25198.49565508 -.00000049  00000+0 -15621-3 0  9998
2 50500  87.9124  41.9556 0001980  85.2000 274.9358 13.18684751177474
ONEWEB-0430             
1 50501U 21132AJ  25198.48412482 -.00000016  00000+0 -74311-4 0  9996
2 50501  87.9125  41.9519 0001909  77.7561 282.3785 13.18687297177514
ONEWEB-0432             
1 50502U 21132AK  25198.51570158 -.00000007  00000+0 -49935-4 0  9990
2 50502  87.9116  41.9286 0001162  60.9586 299.1663 13.18686964177474
ONEWEB-0440             
1 50503U 21132AL  25198.50391247  .00000016  00000+0  66006-5 0  9997
2 50503  87.9127  41.9369 0002135  94.6813 265.4563 13.18685160177468
ONEWEB-0450             
1 50504U 21132AM  25198.49745047 -.00000039  00000+0 -13119-3 0  9999
2 50504  87.9123  41.9647 0002102  82.3755 277.7616 13.18684809177494
ONEWEB-0410             
1 51622U 22012A   25198.18689088  .00000047  00000+0  87040-4 0  9999
2 51622  87.9052  72.5241 0000741 126.0371 234.0829 13.17649263169581
ONEWEB-0411             
1 51623U 22012B   25198.26173674  .00000787  00000+0  22171-2 0  9991
2 51623  87.8822 103.0662 0002194  61.9258 298.2091 13.10373362165427
